HAWK-5A                 
1 52757U 22057AB  26188.74359800  .00012714  00000+0  21190-3 0  9993
2 52757  97.6626 348.9329 0004053   7.1190 353.0118 15.52139344229531
HAWK-6B                 
1 55324U 23011A   26188.57608579  .00002686  00000+0  11961-3 0  9990
2 55324  40.4971 233.1356 0003032 198.5523 161.5176 15.23109984190953
HAWK-6C                 
1 55326U 23011C   26188.57546469  .00002907  00000+0  12876-3 0  9993
2 55326  40.4958 229.9751 0003406 185.2736 174.8038 15.23110272190963
HAWK-6A                 
1 55327U 23011D   26188.57549785  .00002892  00000+0  12816-3 0  9995
2 55327  40.4968 231.6017 0002947 183.6819 176.3969 15.23111426190965
HAWK-7A                 
1 56191U 23054P   26188.74609285  .00003717  00000+0  14051-3 0  9993
2 56191  97.2674  75.5606 0002261   5.1743 354.9520 15.27580157180164
HAWK-7B                 
1 56193U 23054R   26188.74601791  .00003788  00000+0  14312-3 0  9997
2 56193  97.2701  73.8317 0002127  30.1406 329.9955 15.27582960180160
HAWK-7C                 
1 56200U 23054Y   26188.74590649  .00003717  00000+0  14051-3 0  9997
2 56200  97.2677  74.5939 0001795  17.0088 343.1211 15.27581486180164
